#cP2024  2 19 18  0  0.00000000     577 d+D   IGS20 EXT AIUB
## 2302 151200.00000000   300.00000000 60359 0.7500000000000
+   77   G01G02G03G04G05G06G07G08G09G10G11G12G13G14G15G16G17
+        G18G19G20G21G22G23G24G25G26G27G28G29G30G31G32R01R02
+        R03R04R05R07R08R09R11R12R13R14R15R16R17R18R19R20R21
+        R22E02E03E04E05E07E08E09E10E11E12E13E14E15E18E19E21
+        E24E25E26E27E30E31E33E34E36  0  0  0  0  0  0  0  0
++         6  7  6  8  7  7  7  6  6  6  7  7  7  6  7  7  7
++         7  7  7  8  7  6  6  5  6  6  6  7  6  7  6  9  7
++         8  8  8  8  7  7  6  6  7  6  6  7  8  8  9  9  8
++         7  6  7  7  7  7  6  6  7  7  6  7  6  7  7  6  5
++         6  6  6  5  5  6  7  7  6  0  0  0  0  0  0  0  0
%c M  cc GPS ccc cccc cccc cccc cccc ccccc ccccc ccccc ccccc
%c cc cc ccc ccc cccc cccc cccc cccc ccccc ccccc ccccc ccccc
%f  1.2500000  1.025000000  0.00000000000  0.000000000000000
%f  0.0000000  0.000000000  0.00000000000  0.000000000000000
%i    0    0    0    0      0      0      0      0         0
%i    0    0    0    0      0      0      0      0         0
/* Center for Orbit Determination in Europe (CODE)          
/* Ultra-rapid GRE orbits starting year-day 24050 18 hour   
/* Observed/predicted: 24/24 hours (data used up to 051R)   
/* PCV:IGS20      OL/AL:FES2014b NONE     YN ORB:CoN CLK:BRD
*  2024  2 20  9 10  0.00000000
PG01 -12943.133251   7246.880448  21659.107853    170.310194
PG02 -16118.070013  -1339.544597  21605.678635   -482.588668
PG03 -21618.832492   9582.871640  11830.679576    204.777966
PG04 -24384.700514   -345.345551 -10667.679681    296.214634
PG05  17469.472725   1712.308699 -20131.205006   -162.493114
PG06   5661.722078  25885.816258    339.652535    399.830110
PG07  -7422.692540  18966.144913 -16298.698007    -66.305048
PG08 -26164.475207  -5396.149117   1962.711193   -167.925100
PG09 -15242.259208  10017.806936 -19409.010820     98.318720
PG10   5915.081742 -20354.521663  16004.633269      1.053851
PG11  11831.892073  21035.210835 -11117.350201   -581.944277
PG12  22284.841524  -7682.664877  11887.184622   -479.775871
PG13  22165.786436  13992.320505  -5173.006156    627.213059
PG14  -9718.802376  21104.823876  12715.710785    330.550693
PG15  26472.511748   2743.819930   1254.912982    129.607920
PG16 -13460.467578  -8549.513512 -21635.243261   -358.618386
PG17  -1944.289678  15326.045488  22016.115381    716.396012
PG18   6759.506907 -19922.553218 -16083.843439   -559.562272
PG19   8731.109487  17169.323072  18257.354907    443.226282
PG20   8688.443105  13525.281648 -21105.117965    386.812571
PG21 -17084.053206  -7792.824894  19626.269389    134.266262
PG22  -3259.617344  19170.800913  18647.281254     28.237062
PG23  15740.455164 -20666.711294   5048.116553    160.112431
PG24  16848.026014   3855.744464  19857.412354   -434.681934
PG25  20083.204874 -16853.333833   2858.862333    489.134926
PG26  -4878.078717 -16819.952226 -20020.099897    188.253860
PG27 -21292.078245 -13189.238901  -9743.726000     -5.617149
PG28  -4904.604777 -25915.631283   3124.614388   -137.274104
PG29  17341.821612  -7166.294780 -18888.173698   -606.599182
PG30    -44.145849  25156.021730  -7955.772497   -430.170858
PG31 -10076.805941 -23420.102435  -6860.998699   -227.823866
PG32  -2817.258008 -16141.518464  21143.386980   -612.572968
PR01 -25262.788053   1755.583289   3017.398467     77.643398
PR02 -19699.047953   8273.670134 -13936.952768    -22.520977
PR03  -2683.851717  11025.628256 -22798.745385     94.863766
PR04  15245.973946   7472.157819 -18996.718796    224.230888
PR05  25011.650820    124.840816  -4926.860449    127.195789
PR07   1583.724371 -11004.941665  22999.360269     76.225974
PR08 -15531.119803  -7408.854771  18908.078951    -74.486546
PR09  13302.605489 -19570.094625   9642.332920    171.022699
PR11  -3549.788937 -15527.720900 -19923.451744     33.729632
PR12 -12969.222788   3569.234008 -21658.818113     36.941756
PR13 -13902.651458  17806.018585 -11872.158182    -44.548799
PR14  -6276.607148  23543.943070   7522.616758     26.074238
PR15   4464.382972  14361.989899  20612.958731     82.035762
PR16  12750.554532  -3401.738228  21837.447909     23.420376
PR17   6065.034954  20069.204976  14564.065089     62.762871
PR18  14905.909839  20628.323269  -1178.406924    128.308739
PR19  16188.911090  12516.210447 -15224.466686   -266.497452
PR20   7643.572863  -7226.252549 -23229.530138   -108.560948
PR21  -6101.400518 -20150.443202 -14385.114472    -78.430796
PR22 -14770.888785 -20680.690747   2330.947889    109.003021
PE02  -2521.418257  21293.537368  20402.198994    104.912606
PE03   8780.128858  18435.185323 -21433.791833    -95.050478
PE04 -25644.055807 -13076.188501   6907.595517   -331.589002
PE05 -12964.787332  12956.905719 -23236.964766   4721.792381
PE07  27427.697278    421.386833  11140.438346   -104.742939
PE08  25299.778659  13374.565737  -7581.136502   -226.770759
PE09 -27438.638877   -561.731590 -11071.094948   -342.696216
PE10 -16881.917997  -9354.332946  22442.165459   -603.359584
PE11 -15822.951652   2826.423609  24851.076430   3235.365273
PE12 -15373.400853 -18843.568276  16893.906354   -914.302590
PE13  15896.137685  -2072.209506 -24874.655041    -20.242896
PE14  15469.004239  18745.852880  14736.264611 999999.999999
PE15  15179.297790  19300.190985 -16510.249748    -86.841780
PE18  -1924.360726 -19443.195585 -20729.114696 999999.999999
PE19  -6285.963557 -18256.878160  22445.775095   -579.642656
PE21  18577.697835 -22317.215975  -5737.103635   -579.961562
PE24 -24584.195818   9891.081738 -13238.431932   -608.434662
PE25 -18847.669501  22195.368903   5343.315246      1.134441
PE26   7048.151839 -22374.200802 -18047.544353    374.125809
PE27  24542.520503 -10318.699102  12916.250886   -279.334986
PE30  15798.187608   7902.898525  23730.753138    -16.004498
PE31 -15976.630540  -7610.472637 -23730.651967    -16.423683
PE33  -5233.658243 -29070.851676  -1933.815876      7.877059
PE34   5631.708372  29026.430110   1395.439543    -95.660628
PE36  -7329.552900  21846.794644  18576.717993   -188.498458
EOF
